[{"OBJECT_NAME":"STARLINK-5964","OBJECT_ID":"2023-042Z","EPOCH":"2026-03-09T00:25:17.622048","MEAN_MOTION":15.02616862,"ECCENTRICITY":0.00015763,"INCLINATION":43.0047,"RA_OF_ASC_NODE":59.3853,"ARG_OF_PERICENTER":249.2966,"MEAN_ANOMALY":110.7707,"EPHEMERIS_TYPE":0,"CLASSIFICATION_TYPE":"U","NORAD_CAT_ID":56009,"ELEMENT_SET_NO":999,"REV_AT_EPOCH":16281,"BSTAR":-0.001285248,"MEAN_MOTION_DOT":-0.00017559,"MEAN_MOTION_DDOT":0},{"OBJECT_NAME":"PEGASUS DEB","OBJECT_ID":"1994-029AFV","EPOCH":"2026-03-07T18:19:12.614880","MEAN_MOTION":14.92266405,"ECCENTRICITY":0.0107713,"INCLINATION":81.5817,"RA_OF_ASC_NODE":82.8303,"ARG_OF_PERICENTER":304.7008,"MEAN_ANOMALY":54.4096,"EPHEMERIS_TYPE":0,"CLASSIFICATION_TYPE":"U","NORAD_CAT_ID":39922,"ELEMENT_SET_NO":999,"REV_AT_EPOCH":62967,"BSTAR":0.0012051888,"MEAN_MOTION_DOT":0.00013798,"MEAN_MOTION_DDOT":0}]
